GLOBALSTAR M024 [-]     
1 25883U 99043A   24010.43667841 -.00000132  00000+0 -23777-2 0  9992
2 25883  52.0012 122.3700 0000642 343.9433  92.0635 11.10154948 56699
GLOBALSTAR M027 [-]     
1 25884U 99043B   24010.42795970 -.00000086  00000+0 -86441-3 0  9993
2 25884  52.0176 185.5374 0020515 223.0903 136.8284 11.04367115 83377
GLOBALSTAR M054 [-]     
1 25885U 99043C   24011.07858601 -.00000075  00000+0 -97699-4 0  9993
2 25885  52.0159  39.1701 0004072 354.3363  18.3915 11.39202636 59760
GLOBALSTAR M053 [-]     
1 25886U 99043D   24011.18364029 -.00000052  00000+0  48924-3 0  9992
2 25886  52.0011 317.0027 0003107 283.1703 183.5403 11.27652913 60585
GLOBALSTAR M058 [-]     
1 25907U 99049A   24011.15667247 -.00000045  00000+0  53179-3 0  9997
2 25907  51.9950  65.7693 0001952 350.9678   9.1121 11.93172364 90319
GLOBALSTAR M050 [-]     
1 25908U 99049B   24010.46844007 -.00000073  00000+0  17571-3 0  9999
2 25908  51.9989 114.4082 0009594  73.1601  51.6260 12.07427056 89654
GLOBALSTAR M033 [-]     
1 25909U 99049C   24011.02564912 -.00000105  00000+0 -12949-3 0  9998
2 25909  51.9932  20.8486 0011407 276.3511  83.6037 12.20261582104597
GLOBALSTAR M055 [-]     
1 25910U 99049D   24010.51188687 -.00000035  00000+0  50750-3 0  9997
2 25910  52.0029  58.5239 0007478 125.7010 234.4538 12.29393538104099
